{"type": "FeatureCollection", "features": [{"type": "Feature", "properties": {"iso_a3": "CHE", "name": "Switzerland"}, "geometry": {"type": "Polygon", "coordinates": [[[9.524, 47.5242], [9.5544, 47.5111], [9.6259, 47.467], [9.6091, 47.3918], [9.5275, 47.2708], [9.4843, 47.1727], [9.4795, 47.0975], [9.4877, 47.0623], [9.5023, 47.0627], [9.5803, 47.0574], [9.6199, 47.0575], [9.745, 47.0371], [9.8453, 47.0074], [9.8646, 46.976], [9.8777, 46.9377], [9.9969, 46.8854], [10.1335, 46.8515], [10.1798, 46.8624], [10.3494, 46.9848], [10.4149, 46.9644], [10.4546, 46.8994], [10.4528, 46.8649], [10.4061, 46.7349], [10.3979, 46.665], [10.4383, 46.6188], [10.4425, 46.5829], [10.4307, 46.55], [10.3631, 46.5471], [10.2723, 46.5648], [10.1955, 46.6211], [10.1375, 46.6144], [10.087, 46.5999], [10.0612, 46.5468], [10.0383, 46.4832], [10.0456, 46.4479], [10.0819, 46.4208], [10.1097, 46.3628], [10.1299, 46.288], [10.1452, 46.2535], [10.1283, 46.2382], [10.0806, 46.228], [10.041, 46.2381], [9.9717, 46.3277], [9.9393, 46.3618], [9.8845, 46.3678], [9.7878, 46.346], [9.6395, 46.2959], [9.5796, 46.2961], [9.5287, 46.3062], [9.4811, 46.3488], [9.4406, 46.4308], [9.4276, 46.4823], [9.3993, 46.4807], [9.3044, 46.4956], [9.2602, 46.4752], [9.2598, 46.3913], [9.2511, 46.2868], [9.2034, 46.2192], [9.071, 46.1024], [9.0224, 46.0515], [9.003, 46.0149], [8.9989, 45.9831], [9.0191, 45.9281], [9.0467, 45.8756], [9.0237, 45.8457], [8.9537, 45.83], [8.9043, 45.862], [8.8852, 45.9187], [8.778, 45.9962], [8.8268, 46.061], [8.8186, 46.0771], [8.6417, 46.1108], [8.5654, 46.1598], [8.4584, 46.2459], [8.4385, 46.2829], [8.443, 46.4028], [8.4368, 46.4319], [8.4226, 46.446], [8.3707, 46.4451], [8.2985, 46.4034], [8.2319, 46.3412], [8.0957, 46.271], [8.0815, 46.256], [8.1272, 46.1876], [8.1252, 46.1609], [8.0143, 46.0519], [7.9932, 46.0159], [7.8523, 45.9475], [7.7879, 45.9218], [7.5926, 45.9722], [7.5386, 45.9782], [7.4516, 45.9444], [7.3279, 45.9124], [7.129, 45.8804], [7.0558, 45.9038], [7.0211, 45.9258], [7.0039, 45.9588], [6.9537, 46.0171], [6.8973, 46.0518], [6.858, 46.0894], [6.8057, 46.1307], [6.7721, 46.1651], [6.8168, 46.2752], [6.7842, 46.314], [6.7674, 46.3692], [6.7761, 46.4066], [6.7581, 46.4158], [6.5782, 46.4374], [6.4289, 46.4305], [6.3219, 46.3937], [6.2347, 46.3326], [6.2242, 46.3194], [6.2296, 46.3084], [6.2729, 46.2522], [6.1994, 46.1931], [6.0866, 46.147], [6.0066, 46.1423], [5.9715, 46.1512], [5.97, 46.2147], [6.0361, 46.2381], [6.0959, 46.2794], [6.1159, 46.3376], [6.1232, 46.3786], [6.0603, 46.4282], [6.068, 46.4585], [6.107, 46.5161], [6.1297, 46.567], [6.1607, 46.611], [6.2852, 46.6831], [6.4102, 46.7554], [6.429, 46.8323], [6.4386, 46.9259], [6.4562, 46.9483], [6.6248, 47.0043], [6.6669, 47.0265], [6.6881, 47.0583], [6.8207, 47.1632], [6.9521, 47.2672], [6.9785, 47.3021], [7.0006, 47.3225], [7.0006, 47.3395], [6.9841, 47.3525], [6.9215, 47.3612], [6.9004, 47.3942], [6.9684, 47.4532], [7.0534, 47.4894], [7.136, 47.4898], [7.1692, 47.4732], [7.1675, 47.4537], [7.2031, 47.4327], [7.2657, 47.4258], [7.3432, 47.4331], [7.42, 47.4552], [7.4674, 47.5077], [7.4949, 47.5474], [7.6156, 47.5927], [7.698, 47.5699], [7.9271, 47.5639], [8.0938, 47.5762], [8.1982, 47.6069], [8.3278, 47.6069], [8.4147, 47.5896], [8.4301, 47.5921], [8.454, 47.5962], [8.4776, 47.6127], [8.5595, 47.624], [8.5705, 47.6378], [8.5671, 47.6519], [8.5523, 47.6591], [8.4518, 47.6518], [8.4133, 47.6627], [8.4034, 47.6878], [8.4357, 47.7313], [8.5099, 47.7669], [8.5727, 47.7756], [8.6179, 47.7661], [8.7283, 47.7], [8.7548, 47.698], [8.7701, 47.7099], [8.7931, 47.7166], [8.8312, 47.7036], [8.874, 47.6627], [8.8812, 47.6564], [9.1275, 47.6707], [9.1828, 47.6707], [9.35, 47.5989], [9.524, 47.5242]]]}}, {"type": "Feature", "properties": {"iso_a3": "LIE", "name": "Liechtenstein"}, "geometry": {"type": "Polygon", "coordinates": [[[9.5803, 47.0574], [9.5023, 47.0627], [9.4877, 47.0623], [9.4795, 47.0975], [9.4843, 47.1727], [9.5275, 47.2708], [9.5368, 47.2546], [9.5422, 47.2341], [9.5511, 47.2123], [9.5558, 47.1855], [9.5719, 47.1579], [9.6012, 47.1321], [9.6105, 47.1071], [9.5957, 47.0758], [9.5803, 47.0574]]]}}, {"type": "Feature", "properties": {"iso_a3": "ITA", "name": "Italy"}, "geometry": {"type": "MultiPolygon", "coordinates": [[[[7.0211, 45.9258], [7.0558, 45.9038], [7.129, 45.8804], [7.3279, 45.9124], [7.4516, 45.9444], [7.5386, 45.9782], [7.5926, 45.9722], [7.7879, 45.9218], [7.8523, 45.9475], [7.9932, 46.0159], [8.0143, 46.0519], [8.1252, 46.1609], [8.1272, 46.1876], [8.0815, 46.256], [8.0957, 46.271], [8.2319, 46.3412], [8.2985, 46.4034], [8.3707, 46.4451], [8.4226, 46.446], [8.4368, 46.4319], [8.443, 46.4028], [8.4385, 46.2829], [8.4584, 46.2459], [8.5654, 46.1598], [8.6417, 46.1108], [8.8186, 46.0771], [8.8268, 46.061], [8.778, 45.9962], [8.8852, 45.9187], [8.9043, 45.862], [8.9537, 45.83], [9.0237, 45.8457], [9.0467, 45.8756], [9.0191, 45.9281], [8.9989, 45.9831], [9.003, 46.0149], [9.0224, 46.0515], [9.071, 46.1024], [9.2034, 46.2192], [9.2511, 46.2868], [9.2598, 46.3913], [9.2602, 46.4752], [9.3044, 46.4956], [9.3993, 46.4807], [9.4276, 46.4823], [9.4406, 46.4308], [9.4811, 46.3488], [9.5287, 46.3062], [9.5796, 46.2961], [9.6395, 46.2959], [9.7878, 46.346], [9.8845, 46.3678], [9.9393, 46.3618], [9.9717, 46.3277], [10.041, 46.2381], [10.0806, 46.228], [10.1283, 46.2382], [10.1452, 46.2535], [10.1299, 46.288], [10.1097, 46.3628], [10.0819, 46.4208], [10.0456, 46.4479], [10.0383, 46.4832], [10.0612, 46.5468], [10.087, 46.5999], [10.1375, 46.6144], [10.1955, 46.6211], [10.2723, 46.5648], [10.3631, 46.5471], [10.4307, 46.55], [10.4425, 46.5829], [10.4383, 46.6188], [10.3979, 46.665], [10.4061, 46.7349], [10.4528, 46.8649], [10.4794, 46.8551], [10.5798, 46.8537], [10.6893, 46.8464], [10.7598, 46.7933], [10.8289, 46.7752], [10.9273, 46.7695], [10.9933, 46.777], [11.0251, 46.797], [11.0635, 46.8591], [11.1339, 46.9362], [11.2444, 46.9757], [11.4332, 46.9831], [11.5275, 46.9974], [11.6255, 46.9966], [11.6994, 46.9847], [11.7757, 46.9861], [11.9695, 47.0397], [12.1694, 47.0821], [12.1972, 47.075], [12.2013, 47.0609], [12.1655, 47.0282], [12.1308, 46.9848], [12.1541, 46.9353], [12.268, 46.8359], [12.3301, 46.7598], [12.3883, 46.7026], [12.4792, 46.6725], [12.5986, 46.6541], [12.6998, 46.6475], [12.8056, 46.6259], [13.1687, 46.5727], [13.3516, 46.5579], [13.49, 46.5556], [13.7, 46.5203], [13.6797, 46.4629], [13.6371, 46.4485], [13.5633, 46.4151], [13.4785, 46.3692], [13.3995, 46.3175], [13.3782, 46.2616], [13.3996, 46.225], [13.421, 46.2123], [13.4498, 46.2235], [13.4918, 46.2166], [13.5447, 46.1966], [13.6325, 46.1771], [13.635, 46.1578], [13.6166, 46.1331], [13.548, 46.0891], [13.4864, 46.0396], [13.4803, 46.0092], [13.4877, 45.9871], [13.5092, 45.9738], [13.6006, 45.9798], [13.614, 45.9617], [13.5696, 45.8341], [13.5834, 45.8124], [13.6635, 45.792], [13.7217, 45.7613], [13.8312, 45.6804], [13.8747, 45.6148], [13.8447, 45.5929], [13.776, 45.582], [13.7198, 45.5876], [13.7833, 45.6272], [13.6283, 45.7709], [13.5582, 45.7707], [13.4651, 45.71], [13.2063, 45.7714], [13.1567, 45.7466], [13.1201, 45.6979], [13.0303, 45.6375], [12.903, 45.6108], [12.7612, 45.5443], [12.6117, 45.4972], [12.4976, 45.4617], [12.4321, 45.4679], [12.5361, 45.5449], [12.4918, 45.5463], [12.3538, 45.492], [12.2743, 45.446], [12.2488, 45.3688], [12.2257, 45.2415], [12.2863, 45.2077], [12.3925, 45.0398], [12.5234, 44.968], [12.4979, 44.8994], [12.4636, 44.8452], [12.3845, 44.7983], [12.319, 44.8331], [12.2789, 44.8322], [12.2483, 44.7225], [12.305, 44.4294], [12.3963, 44.2239], [12.4868, 44.1342], [12.6911, 43.9947], [12.907, 43.9212], [13.2953, 43.6861], [13.5082, 43.6117], [13.5642, 43.5713], [13.6933, 43.3899], [13.8047, 43.1804], [13.9249, 42.8516], [14.0104, 42.6896], [14.1827, 42.5064], [14.5407, 42.2443], [14.8661, 42.0525], [15.1687, 41.934], [15.405, 41.9132], [15.9641, 41.9395], [16.0615, 41.9281], [16.1646, 41.8962], [16.1892, 41.814], [16.1513, 41.7585], [16.0337, 41.7008], [15.9138, 41.6208], [15.9005, 41.5121], [16.0126, 41.4354], [16.5519, 41.232], [17.1034, 41.0622], [17.2752, 40.9754], [17.4742, 40.8406], [17.955, 40.6552], [18.0361, 40.5649], [18.3282, 40.3708], [18.4606, 40.221], [18.4858, 40.1048], [18.4226, 39.9869], [18.3935, 39.9036], [18.3438, 39.8214], [18.2193, 39.8525], [18.0779, 39.937], [17.865, 40.2802], [17.4762, 40.3149], [17.3958, 40.3402], [17.2577, 40.3991], [17.2494, 40.4379], [17.2153, 40.4864], [17.18, 40.5028], [17.0312, 40.5135], [16.9282, 40.4581], [16.807, 40.3265], [16.6696, 40.1372], [16.53, 39.8597], [16.5219, 39.7476], [16.5978, 39.6389], [16.8243, 39.5783], [16.9992, 39.4816], [17.1146, 39.3806], [17.1229, 39.1366], [17.1746, 38.9981], [17.0985, 38.9193], [16.9515, 38.9398], [16.7555, 38.8897], [16.6167, 38.8001], [16.559, 38.7148], [16.5742, 38.4936], [16.5456, 38.4091], [16.2824, 38.2496], [16.1441, 38.0864], [16.1098, 38.0187], [16.0568, 37.9418], [15.7245, 37.9391], [15.6458, 38.0342], [15.6431, 38.1754], [15.7002, 38.2623], [15.8224, 38.303], [15.9048, 38.4835], [15.8789, 38.6139], [15.927, 38.6717], [15.9724, 38.7126], [16.0655, 38.7364], [16.1968, 38.7592], [16.21, 38.9411], [16.1074, 39.0238], [16.0715, 39.1395], [16.0236, 39.3536], [15.8544, 39.6265], [15.7637, 39.8701], [15.6928, 39.9902], [15.5852, 40.0528], [15.3909, 40.0521], [15.2945, 40.07], [14.9509, 40.239], [14.927, 40.2647], [14.9291, 40.3096], [14.9861, 40.3775], [14.9477, 40.4693], [14.9069, 40.5561], [14.8396, 40.63], [14.7657, 40.6684], [14.6112, 40.6448], [14.5569, 40.6264], [14.4594, 40.6327], [14.3827, 40.5999], [14.3399, 40.5988], [14.4605, 40.7287], [14.4281, 40.7593], [14.3089, 40.8126], [14.1472, 40.8207], [14.1023, 40.8271], [14.0759, 40.7939], [14.0443, 40.8123], [14.0477, 40.8703], [13.8598, 41.13], [13.7334, 41.2356], [13.6697, 41.2545], [13.5548, 41.2322], [13.3619, 41.2785], [13.2469, 41.2889], [13.1834, 41.2777], [13.0887, 41.2438], [13.041, 41.2662], [13.0242, 41.3009], [12.8492, 41.4087], [12.6309, 41.4697], [12.2057, 41.8126], [12.0753, 41.9409], [11.807, 42.082], [11.6373, 42.2875], [11.4984, 42.3629], [11.2963, 42.4233], [11.2497, 42.4157], [11.1889, 42.3931], [11.1412, 42.3899], [11.1032, 42.4166], [11.1418, 42.4441], [11.1848, 42.4566], [11.1678, 42.5352], [10.9378, 42.7387], [10.8031, 42.8043], [10.7651, 42.8447], [10.7371, 42.9], [10.7084, 42.9363], [10.6446, 42.9572], [10.5902, 42.9536], [10.5148, 42.9675], [10.5173, 43.0651], [10.5323, 43.1401], [10.5208, 43.2038], [10.4476, 43.3712], [10.3205, 43.5131], [10.2458, 43.8521], [10.1881, 43.9475], [10.0477, 44.02], [9.7309, 44.1012], [9.2894, 44.3192], [9.196, 44.323], [8.9304, 44.4078], [8.7658, 44.4223], [8.552, 44.3461], [8.2924, 44.1365], [8.0816, 43.9189], [8.005, 43.8768], [7.7333, 43.8026], [7.4932, 43.7671], [7.4905, 43.8229], [7.482, 43.8649], [7.5227, 43.9111], [7.5896, 43.9654], [7.6515, 44.0336], [7.6771, 44.0832], [7.665, 44.116], [7.6372, 44.1648], [7.5994, 44.1684], [7.3709, 44.1274], [7.3186, 44.138], [7.1494, 44.2017], [6.9673, 44.28], [6.9002, 44.3357], [6.8748, 44.392], [6.8938, 44.4282], [6.8786, 44.4633], [6.843, 44.5107], [6.8752, 44.5646], [6.9319, 44.6316], [6.9604, 44.6771], [7.0079, 44.689], [7.0307, 44.7167], [6.9927, 44.8273], [6.9729, 44.845], [6.9398, 44.8587], [6.8894, 44.8603], [6.8011, 44.8832], [6.7382, 44.9214], [6.7247, 44.973], [6.6914, 45.0226], [6.6348, 45.0682], [6.6277, 45.118], [6.6923, 45.1443], [6.7804, 45.1453], [6.8423, 45.1356], [6.9813, 45.2156], [7.0324, 45.2226], [7.0783, 45.2399], [7.1168, 45.349], [7.1464, 45.3817], [7.1534, 45.4009], [7.1261, 45.4237], [7.0137, 45.5005], [6.9624, 45.5806], [6.8814, 45.6704], [6.8063, 45.71], [6.7909, 45.7409], [6.7892, 45.7801], [6.8045, 45.8146], [6.9408, 45.8684], [7.0211, 45.9258]], [[12.4392, 41.8984], [12.4384, 41.9062], [12.4306, 41.9055], [12.4275, 41.9007], [12.4306, 41.8976], [12.4392, 41.8984]], [[12.4853, 43.9014], [12.5146, 43.953], [12.5037, 43.9897], [12.4411, 43.9824], [12.3969, 43.9346], [12.4264, 43.8941], [12.4853, 43.9014]]], [[[10.3951, 42.8582], [10.4283, 42.8192], [10.4322, 42.7966], [10.41, 42.771], [10.4193, 42.7132], [10.3356, 42.7611], [10.209, 42.7369], [10.1312, 42.742], [10.1098, 42.7851], [10.1275, 42.8103], [10.2482, 42.8158], [10.2857, 42.8281], [10.359, 42.8223], [10.3951, 42.8582]]], [[[13.9383, 40.7056], [13.8937, 40.697], [13.8677, 40.7087], [13.8535, 40.7241], [13.8712, 40.7618], [13.9621, 40.7394], [13.9608, 40.7182], [13.9383, 40.7056]]], [[[12.0513, 36.757], [12.0033, 36.746], [11.9406, 36.7804], [11.9364, 36.8286], [11.948, 36.8431], [12.0242, 36.8209], [12.048, 36.7764], [12.0513, 36.757]]], [[[15.5766, 38.2203], [15.5089, 38.1066], [15.4757, 38.0629], [15.2345, 37.7848], [15.2068, 37.7206], [15.1898, 37.6507], [15.1648, 37.5896], [15.1311, 37.5319], [15.0995, 37.4586], [15.1057, 37.3755], [15.117, 37.3347], [15.146, 37.308], [15.1937, 37.2829], [15.2303, 37.2443], [15.1741, 37.2092], [15.236, 37.1387], [15.2887, 37.0969], [15.2957, 37.0552], [15.2945, 37.0133], [15.1852, 36.9348], [15.1424, 36.8916], [15.1158, 36.8393], [15.1043, 36.7853], [15.1163, 36.7365], [15.1126, 36.6878], [15.0024, 36.6939], [14.8896, 36.7235], [14.776, 36.7104], [14.6144, 36.7666], [14.5555, 36.7768], [14.5019, 36.7987], [14.3673, 36.9729], [14.2591, 37.0464], [14.143, 37.1037], [14.0243, 37.1071], [13.9055, 37.1006], [13.8006, 37.1359], [13.5871, 37.2542], [13.3609, 37.3487], [13.2649, 37.4104], [13.2211, 37.4518], [13.1699, 37.4793], [13.0403, 37.5065], [12.9241, 37.5705], [12.8712, 37.5752], [12.7573, 37.5674], [12.699, 37.5718], [12.6402, 37.5943], [12.5268, 37.6695], [12.4544, 37.7738], [12.4355, 37.8198], [12.4868, 37.9387], [12.5477, 38.0529], [12.6017, 38.085], [12.6644, 38.1079], [12.7023, 38.1417], [12.7344, 38.1831], [12.8507, 38.0637], [12.9027, 38.0349], [12.9555, 38.0413], [13.049, 38.0841], [13.0568, 38.1309], [13.16, 38.1903], [13.2911, 38.1915], [13.3517, 38.1805], [13.3835, 38.1268], [13.4335, 38.1103], [13.4913, 38.1031], [13.6815, 38.0007], [13.7349, 37.984], [13.7889, 37.9812], [13.9366, 38.0242], [14.05, 38.0405], [14.2877, 38.0168], [14.4162, 38.0426], [14.506, 38.0455], [14.6367, 38.0851], [14.7372, 38.1508], [14.7896, 38.167], [14.8459, 38.1717], [14.9819, 38.1676], [15.1188, 38.1527], [15.1761, 38.1681], [15.224, 38.211], [15.2796, 38.2304], [15.3407, 38.2173], [15.4987, 38.2909], [15.5684, 38.2959], [15.6347, 38.2676], [15.5766, 38.2203]]], [[[9.632, 40.882], [9.682, 40.8181], [9.7943, 40.5562], [9.8053, 40.4996], [9.7828, 40.4415], [9.7542, 40.4003], [9.643, 40.2684], [9.6595, 40.1592], [9.7008, 40.0918], [9.7067, 40.017], [9.686, 39.9244], [9.617, 39.3544], [9.5836, 39.2536], [9.5625, 39.166], [9.4863, 39.1396], [9.3881, 39.1675], [9.2642, 39.2168], [9.2069, 39.2138], [9.1493, 39.197], [9.1018, 39.2113], [9.0563, 39.2392], [9.0227, 39.0433], [8.9666, 38.9637], [8.8813, 38.9129], [8.8012, 38.9097], [8.7186, 38.9267], [8.6485, 38.9266], [8.5954, 38.9643], [8.5533, 39.0303], [8.4862, 39.1105], [8.4182, 39.2057], [8.4107, 39.2918], [8.3991, 39.4816], [8.4187, 39.523], [8.4471, 39.5628], [8.461, 39.6477], [8.4512, 39.7217], [8.4711, 39.7481], [8.5107, 39.7217], [8.5405, 39.7316], [8.5387, 39.7697], [8.5478, 39.8392], [8.4959, 39.8975], [8.4078, 39.9172], [8.3993, 39.9782], [8.4086, 40.0376], [8.4551, 40.0776], [8.4708, 40.1307], [8.4713, 40.2927], [8.4092, 40.3523], [8.3854, 40.4427], [8.3532, 40.5005], [8.2955, 40.5586], [8.2303, 40.606], [8.1899, 40.6516], [8.1809, 40.771], [8.2038, 40.8707], [8.2242, 40.9133], [8.2452, 40.907], [8.3102, 40.8575], [8.3633, 40.8463], [8.4685, 40.8343], [8.5719, 40.8502], [8.6989, 40.8953], [8.8212, 40.9499], [8.9981, 41.1104], [9.1072, 41.1429], [9.1631, 41.1852], [9.1821, 41.2422], [9.2284, 41.2571], [9.283, 41.2017], [9.3508, 41.1959], [9.4552, 41.1501], [9.5002, 41.1063], [9.5388, 41.0537], [9.5757, 41.0305], [9.6153, 41.0173], [9.6212, 41.0049], [9.5897, 40.9925], [9.5537, 40.9321], [9.574, 40.9147], [9.632, 40.882]]], [[[8.4789, 39.0675], [8.4215, 38.9687], [8.3609, 39.0387], [8.3586, 39.0988], [8.3668, 39.1159], [8.4406, 39.0906], [8.4789, 39.0675]]], [[[8.286, 41.0398], [8.2527, 40.9941], [8.2057, 40.9975], [8.224, 41.0313], [8.2674, 41.0991], [8.3202, 41.1219], [8.3438, 41.1016], [8.3189, 41.0627], [8.286, 41.0398]]]]}}, {"type": "Feature", "properties": {"iso_a3": "DEU", "name": "Germany"}, "geometry": {"type": "MultiPolygon", "coordinates": [[[[9.524, 47.5242], [9.35, 47.5989], [9.1828, 47.6707], [9.1275, 47.6707], [8.8812, 47.6564], [8.874, 47.6627], [8.8312, 47.7036], [8.7931, 47.7166], [8.7701, 47.7099], [8.7548, 47.698], [8.7283, 47.7], [8.6179, 47.7661], [8.5727, 47.7756], [8.5099, 47.7669], [8.4357, 47.7313], [8.4034, 47.6878], [8.4133, 47.6627], [8.4518, 47.6518], [8.5523, 47.6591], [8.5671, 47.6519], [8.5705, 47.6378], [8.5595, 47.624], [8.4776, 47.6127], [8.454, 47.5962], [8.4301, 47.5921], [8.4147, 47.5896], [8.3278, 47.6069], [8.1982, 47.6069], [8.0938, 47.5762], [7.9271, 47.5639], [7.698, 47.5699], [7.6156, 47.5927], [7.5654, 47.6065], [7.5294, 47.6739], [7.5386, 47.7736], [7.5933, 47.9057], [7.6085, 48.0026], [7.5842, 48.0643], [7.6166, 48.1568], [7.7057, 48.28], [7.7651, 48.41], [7.7948, 48.5468], [7.838, 48.636], [7.9228, 48.6985], [8.124, 48.8733], [8.1403, 48.8864], [8.1349, 48.9736], [8.0807, 48.9859], [8.0013, 49.0109], [7.7992, 49.0419], [7.6109, 49.0618], [7.5255, 49.0864], [7.4506, 49.1522], [7.4042, 49.1531], [7.3134, 49.1295], [7.1999, 49.1136], [7.1174, 49.1275], [7.0657, 49.1249], [7.0367, 49.1127], [7.0222, 49.1234], [7.0015, 49.1799], [6.9583, 49.1946], [6.8912, 49.2075], [6.8495, 49.202], [6.8207, 49.1739], [6.7763, 49.1542], [6.7354, 49.1606], [6.6076, 49.2909], [6.5747, 49.3197], [6.5663, 49.3462], [6.5343, 49.3947], [6.4581, 49.4429], [6.3822, 49.4582], [6.3443, 49.4527], [6.3484, 49.5127], [6.3783, 49.5996], [6.4067, 49.645], [6.4446, 49.682], [6.4848, 49.7078], [6.4938, 49.7544], [6.4873, 49.7985], [6.4409, 49.8053], [6.3246, 49.8379], [6.2561, 49.8722], [6.2049, 49.9151], [6.1382, 49.9743], [6.1098, 50.0344], [6.1083, 50.0942], [6.1165, 50.121], [6.1213, 50.1394], [6.1751, 50.2327], [6.3645, 50.3162], [6.3437, 50.4002], [6.3409, 50.4518], [6.2949, 50.4855], [6.203, 50.4991], [6.1787, 50.5225], [6.1685, 50.5454], [6.2359, 50.5967], [6.1545, 50.6373], [6.1194, 50.6792], [6.006, 50.7322], [5.9939, 50.7504], [6.0484, 50.9049], [6.0068, 50.95], [5.9551, 50.9729], [5.8947, 50.9842], [5.8672, 51.0057], [5.8575, 51.0301], [5.8684, 51.0453], [5.9393, 51.0408], [5.961, 51.0567], [6.13, 51.1474], [6.1369, 51.1648], [6.1134, 51.1747], [6.0824, 51.18], [6.0748, 51.199], [6.0759, 51.2241], [6.1662, 51.3548], [6.1929, 51.4106], [6.1988, 51.45], [6.1933, 51.4889], [6.1416, 51.5501], [6.0911, 51.5989], [6.0894, 51.6378], [6.0527, 51.6583], [5.9485, 51.7624], [5.9487, 51.8027], [6.0076, 51.834], [6.0898, 51.854], [6.1172, 51.8704], [6.1665, 51.8808], [6.2971, 51.8507], [6.3557, 51.8247], [6.3722, 51.83], [6.425, 51.8584], [6.5176, 51.854], [6.7418, 51.9109], [6.7752, 51.9383], [6.8004, 51.9674], [6.8024, 51.9802], [6.7156, 52.0362], [6.713, 52.0569], [6.7245, 52.0802], [6.749, 52.0987], [6.8004, 52.1112], [6.8551, 52.1358], [6.9772, 52.2055], [7.0196, 52.266], [7.0326, 52.3315], [7.0352, 52.3802], [7.0019, 52.419], [6.9682, 52.4441], [6.9221, 52.4403], [6.8325, 52.4423], [6.7488, 52.464], [6.7029, 52.4992], [6.6916, 52.5302], [6.7124, 52.5497], [6.7188, 52.5736], [6.7054, 52.5977], [6.7107, 52.6179], [6.7484, 52.6341], [7.0132, 52.6335], [7.033, 52.6514], [7.0509, 52.7448], [7.1171, 52.887], [7.1795, 52.9662], [7.1899, 52.9995], [7.189, 53.1872], [7.1973, 53.2823], [7.1521, 53.327], [7.0533, 53.3758], [7.0743, 53.4776], [7.1071, 53.557], [7.2064, 53.6545], [7.2853, 53.6813], [7.6292, 53.6973], [8.0093, 53.6907], [8.1671, 53.5434], [8.1085, 53.4677], [8.2008, 53.4324], [8.2452, 53.4453], [8.279, 53.5112], [8.3016, 53.5841], [8.3339, 53.6062], [8.4514, 53.5517], [8.4927, 53.5144], [8.4952, 53.3942], [8.5385, 53.5569], [8.5062, 53.6708], [8.5284, 53.7811], [8.5756, 53.8385], [8.6189, 53.875], [8.8978, 53.8357], [9.2056, 53.856], [9.322, 53.8135], [9.5854, 53.6005], [9.6731, 53.5656], [9.784, 53.5546], [9.6312, 53.6002], [9.312, 53.8591], [9.2164, 53.8912], [9.0696, 53.9009], [8.9781, 53.9262], [8.9204, 53.9653], [8.9035, 54.0003], [8.9066, 54.2608], [8.8516, 54.2996], [8.7804, 54.313], [8.736, 54.2952], [8.6449, 54.295], [8.6258, 54.354], [8.648, 54.3977], [8.8312, 54.4275], [8.9519, 54.4676], [8.9572, 54.5383], [8.881, 54.5939], [8.7896, 54.6959], [8.6823, 54.7918], [8.6703, 54.9034], [8.6707, 54.9033], [8.8572, 54.9011], [8.9029, 54.8969], [9.1858, 54.8447], [9.255, 54.808], [9.342, 54.8063], [9.4987, 54.8404], [9.6158, 54.8554], [9.6612, 54.8344], [9.725, 54.8255], [9.7397, 54.8255], [9.7459, 54.8072], [9.8923, 54.7806], [9.9538, 54.7383], [10.0222, 54.6739], [10.0288, 54.5813], [9.9413, 54.5146], [9.8687, 54.4725], [10.1435, 54.4884], [10.1708, 54.4502], [10.2124, 54.4089], [10.3604, 54.4383], [10.7315, 54.3163], [10.956, 54.3757], [11.0134, 54.3792], [11.0644, 54.2805], [11.0086, 54.1812], [10.8107, 54.0751], [10.8546, 54.0098], [10.9178, 53.9953], [11.1043, 54.0092], [11.3996, 53.9446], [11.4611, 53.9647], [11.7006, 54.1135], [11.7963, 54.1455], [12.1113, 54.1683], [12.1687, 54.2259], [12.2963, 54.2838], [12.3785, 54.347], [12.5754, 54.4674], [12.7791, 54.4457], [12.898, 54.4227], [13.0286, 54.411], [13.1475, 54.2827], [13.448, 54.1409], [13.7242, 54.1532], [13.8223, 54.019], [13.8655, 53.8534], [13.9504, 53.8014], [14.025, 53.7674], [14.25, 53.7319], [14.2589, 53.7296], [14.2661, 53.7071], [14.2799, 53.6248], [14.2987, 53.5564], [14.4146, 53.2835], [14.4123, 53.2167], [14.4109, 53.199], [14.3686, 53.1056], [14.2932, 53.0268], [14.1937, 52.9823], [14.1389, 52.9329], [14.1286, 52.8782], [14.2537, 52.7825], [14.5141, 52.6456], [14.6194, 52.5285], [14.5697, 52.4311], [14.5546, 52.3597], [14.5739, 52.3142], [14.6156, 52.2776], [14.6799, 52.25], [14.7054, 52.2075], [14.6924, 52.15], [14.7046, 52.1102], [14.7525, 52.0818], [14.7481, 52.0708], [14.7248, 52.0309], [14.693, 51.958], [14.6749, 51.9048], [14.6017, 51.8324], [14.6239, 51.7708], [14.6813, 51.6982], [14.7249, 51.6617], [14.7387, 51.6271], [14.7109, 51.5449], [14.7247, 51.5239], [14.906, 51.4633], [14.9355, 51.4354], [14.9531, 51.3771], [15.0166, 51.2527], [14.9639, 51.0951], [14.9175, 51.0087], [14.8143, 50.8716], [14.8094, 50.859], [14.7975, 50.8423], [14.7665, 50.8183], [14.7233, 50.8147], [14.6582, 50.8326], [14.6136, 50.8556], [14.6238, 50.9147], [14.5952, 50.9186], [14.5597, 50.9549], [14.5457, 50.9939], [14.5073, 51.0099], [14.3673, 51.0263], [14.3197, 51.0378], [14.2832, 51.0295], [14.2559, 51.0019], [14.2733, 50.9769], [14.2994, 50.9526], [14.3771, 50.9141], [14.369, 50.8987], [14.2018, 50.8612], [14.0965, 50.8228], [13.9984, 50.8011], [13.8985, 50.7613], [13.7014, 50.7165], [13.5567, 50.7046], [13.5266, 50.6928], [13.4726, 50.6169], [13.4361, 50.6011], [13.4012, 50.6093], [13.3746, 50.6217], [13.341, 50.6114], [13.3061, 50.5863], [13.2695, 50.5764], [13.2377, 50.5768], [13.1812, 50.5105], [13.0164, 50.4904], [12.9971, 50.4561], [12.9668, 50.4162], [12.9427, 50.4064], [12.8683, 50.4222], [12.7654, 50.431], [12.7064, 50.4091], [12.6355, 50.3971], [12.549, 50.3934], [12.4526, 50.3498], [12.3586, 50.2732], [12.3057, 50.2057], [12.2773, 50.1814], [12.2312, 50.2449], [12.1748, 50.2884], [12.1349, 50.3109], [12.0992, 50.311], [12.0898, 50.3018], [12.0897, 50.2686], [12.1278, 50.2134], [12.175, 50.1758], [12.1825, 50.148], [12.2078, 50.0975], [12.2765, 50.0423], [12.3842, 49.9986], [12.4576, 49.9555], [12.512, 49.8958], [12.5125, 49.8774], [12.4976, 49.8531], [12.4719, 49.8301], [12.4502, 49.8001], [12.3905, 49.7396], [12.4082, 49.7132], [12.457, 49.6798], [12.5003, 49.6397], [12.5558, 49.5749], [12.632, 49.4612], [12.6812, 49.4145], [12.7479, 49.3662], [12.8134, 49.3293], [12.9167, 49.3305], [13.0237, 49.2601], [13.1405, 49.1583], [13.2278, 49.1117], [13.2888, 49.0975], [13.3391, 49.0608], [13.3837, 49.0081], [13.4012, 48.9776], [13.4407, 48.9556], [13.5477, 48.9597], [13.685, 48.8767], [13.7699, 48.816], [13.8147, 48.7669], [13.8029, 48.7475], [13.7975, 48.6864], [13.7988, 48.6217], [13.7854, 48.5875], [13.7239, 48.5424], [13.6922, 48.5328], [13.6752, 48.523], [13.4866, 48.5818], [13.4717, 48.5718], [13.4599, 48.5646], [13.4094, 48.3941], [13.3746, 48.3614], [13.3229, 48.3312], [13.2152, 48.3019], [13.1404, 48.2899], [13.0821, 48.2751], [12.8975, 48.2037], [12.8143, 48.1608], [12.7604, 48.107], [12.7601, 48.076], [12.8499, 47.9848], [12.9535, 47.8906], [12.9542, 47.8078], [12.9083, 47.7458], [12.8977, 47.7219], [12.9281, 47.7128], [12.9855, 47.7094], [13.0336, 47.6987], [13.0541, 47.6551], [13.0479, 47.5791], [13.0315, 47.508], [13.0144, 47.4781], [12.9681, 47.4757], [12.8789, 47.5064], [12.8094, 47.5422], [12.7828, 47.5642], [12.7812, 47.5904], [12.7962, 47.607], [12.7714, 47.6394], [12.6858, 47.6693], [12.5942, 47.6563], [12.5266, 47.6361], [12.4829, 47.6373], [12.4357, 47.6661], [12.3632, 47.6882], [12.2684, 47.7027], [12.2093, 47.7183], [12.1969, 47.7091], [12.2038, 47.6467], [12.1856, 47.6195], [11.7168, 47.5835], [11.5739, 47.5498], [11.4699, 47.5061], [11.393, 47.4872], [11.3741, 47.4603], [11.2979, 47.4249], [11.2119, 47.4136], [11.1912, 47.4252], [11.136, 47.4089], [11.042, 47.3931], [10.9809, 47.3981], [10.9521, 47.4267], [10.8939, 47.4705], [10.8706, 47.5008], [10.873, 47.5202], [10.7416, 47.5241], [10.6587, 47.5472], [10.4828, 47.5418], [10.4395, 47.5516], [10.4304, 47.5411], [10.4039, 47.417], [10.3691, 47.3661], [10.3128, 47.3134], [10.2406, 47.2841], [10.183, 47.2788], [10.1857, 47.3172], [10.2003, 47.3634], [10.1588, 47.3743], [10.0965, 47.3796], [10.0663, 47.3934], [10.0742, 47.4285], [10.0599, 47.4491], [10.0341, 47.4736], [9.9716, 47.5053], [9.8392, 47.5523], [9.7489, 47.5755], [9.7151, 47.5508], [9.6506, 47.5259], [9.5489, 47.534], [9.524, 47.5242]]], [[[13.7092, 54.3827], [13.7342, 54.3154], [13.7073, 54.2812], [13.5949, 54.3382], [13.482, 54.3374], [13.4146, 54.2496], [13.3644, 54.2458], [13.19, 54.3256], [13.1621, 54.3646], [13.1563, 54.3969], [13.1813, 54.509], [13.1767, 54.5442], [13.2314, 54.5828], [13.2399, 54.6384], [13.3368, 54.6971], [13.4228, 54.6993], [13.4501, 54.6496], [13.4912, 54.6154], [13.636, 54.577], [13.6576, 54.5596], [13.6707, 54.5354], [13.6033, 54.4882], [13.5805, 54.464], [13.6019, 54.4251], [13.7092, 54.3827]]], [[[14.2114, 53.9503], [14.1982, 53.919], [14.2137, 53.8708], [14.1722, 53.8744], [14.0483, 53.8631], [13.9258, 53.8791], [13.9021, 53.939], [13.9217, 53.9966], [13.8725, 54.0363], [13.8271, 54.0596], [13.8204, 54.0928], [13.8277, 54.1272], [14.0389, 54.0346], [14.2114, 53.9503]]], [[[11.2828, 54.418], [11.1293, 54.416], [11.0707, 54.456], [11.0117, 54.4662], [11.0435, 54.5155], [11.085, 54.5334], [11.2336, 54.5013], [11.2803, 54.4384], [11.2828, 54.418]]], [[[8.3077, 54.787], [8.2847, 54.7671], [8.2957, 54.9083], [8.4052, 55.0587], [8.4515, 55.0554], [8.4041, 55.0147], [8.3904, 54.9863], [8.3712, 54.9294], [8.3799, 54.8999], [8.6296, 54.8917], [8.6006, 54.8654], [8.3474, 54.8476], [8.3077, 54.787]]], [[[8.5879, 54.7127], [8.5489, 54.6882], [8.4538, 54.6911], [8.4004, 54.7141], [8.4177, 54.7387], [8.4682, 54.7574], [8.51, 54.7603], [8.5734, 54.7487], [8.5879, 54.7127]]]]}}, {"type": "Feature", "properties": {"iso_a3": "FRA", "name": "France"}, "geometry": {"type": "MultiPolygon", "coordinates": [[[[9.4804, 42.8054], [9.4542, 42.6586], [9.4732, 42.6156], [9.5094, 42.5856], [9.5262, 42.5526], [9.5564, 42.1609], [9.5507, 42.1297], [9.4284, 41.9724], [9.4009, 41.9262], [9.3948, 41.7312], [9.3742, 41.6788], [9.3309, 41.6271], [9.2534, 41.4601], [9.1861, 41.3849], [9.003, 41.4766], [8.895, 41.5162], [8.8421, 41.5589], [8.8075, 41.5884], [8.8298, 41.6277], [8.879, 41.6686], [8.8868, 41.7007], [8.771, 41.7371], [8.718, 41.7614], [8.7187, 41.804], [8.7587, 41.8704], [8.7404, 41.9251], [8.6736, 41.9224], [8.6219, 41.9307], [8.6151, 41.9591], [8.6534, 41.9956], [8.7025, 42.0431], [8.701, 42.0956], [8.6416, 42.1182], [8.5878, 42.1608], [8.5662, 42.2188], [8.6079, 42.2584], [8.6755, 42.284], [8.6259, 42.3434], [8.5924, 42.3447], [8.5656, 42.3577], [8.5875, 42.3853], [8.64, 42.4266], [8.7131, 42.5498], [8.8148, 42.6079], [8.9949, 42.6453], [9.0437, 42.6617], [9.0884, 42.705], [9.1379, 42.7329], [9.198, 42.7292], [9.2535, 42.7125], [9.2877, 42.6946], [9.3134, 42.7132], [9.3384, 42.7669], [9.323, 42.8141], [9.331, 42.9438], [9.3632, 43.0174], [9.4152, 43.0215], [9.4633, 42.981], [9.4608, 42.9452], [9.4786, 42.8605], [9.4804, 42.8054]]], [[[7.6156, 47.5927], [7.4949, 47.5474], [7.4674, 47.5077], [7.42, 47.4552], [7.3432, 47.4331], [7.2657, 47.4258], [7.2031, 47.4327], [7.1675, 47.4537], [7.1692, 47.4732], [7.136, 47.4898], [7.0534, 47.4894], [6.9684, 47.4532], [6.9004, 47.3942], [6.9215, 47.3612], [6.9841, 47.3525], [7.0006, 47.3395], [7.0006, 47.3225], [6.9785, 47.3021], [6.9521, 47.2672], [6.8207, 47.1632], [6.6881, 47.0583], [6.6669, 47.0265], [6.6248, 47.0043], [6.4562, 46.9483], [6.4386, 46.9259], [6.429, 46.8323], [6.4102, 46.7554], [6.2852, 46.6831], [6.1607, 46.611], [6.1297, 46.567], [6.107, 46.5161], [6.068, 46.4585], [6.0603, 46.4282], [6.1232, 46.3786], [6.1159, 46.3376], [6.0959, 46.2794], [6.0361, 46.2381], [5.97, 46.2147], [5.9715, 46.1512], [6.0066, 46.1423], [6.0866, 46.147], [6.1994, 46.1931], [6.2729, 46.2522], [6.2296, 46.3084], [6.2242, 46.3194], [6.2347, 46.3326], [6.3219, 46.3937], [6.4289, 46.4305], [6.5782, 46.4374], [6.7581, 46.4158], [6.7761, 46.4066], [6.7674, 46.3692], [6.7842, 46.314], [6.8168, 46.2752], [6.7721, 46.1651], [6.8057, 46.1307], [6.858, 46.0894], [6.8973, 46.0518], [6.9537, 46.0171], [7.0039, 45.9588], [7.0211, 45.9258], [6.9408, 45.8684], [6.8045, 45.8146], [6.7892, 45.7801], [6.7909, 45.7409], [6.8063, 45.71], [6.8814, 45.6704], [6.9624, 45.5806], [7.0137, 45.5005], [7.1261, 45.4237], [7.1534, 45.4009], [7.1464, 45.3817], [7.1168, 45.349], [7.0783, 45.2399], [7.0324, 45.2226], [6.9813, 45.2156], [6.8423, 45.1356], [6.7804, 45.1453], [6.6923, 45.1443], [6.6277, 45.118], [6.6348, 45.0682], [6.6914, 45.0226], [6.7247, 44.973], [6.7382, 44.9214], [6.8011, 44.8832], [6.8894, 44.8603], [6.9398, 44.8587], [6.9729, 44.845], [6.9927, 44.8273], [7.0307, 44.7167], [7.0079, 44.689], [6.9604, 44.6771], [6.9319, 44.6316], [6.8752, 44.5646], [6.843, 44.5107], [6.8786, 44.4633], [6.8938, 44.4282], [6.8748, 44.392], [6.9002, 44.3357], [6.9673, 44.28], [7.1494, 44.2017], [7.3186, 44.138], [7.3709, 44.1274], [7.5994, 44.1684], [7.6372, 44.1648], [7.665, 44.116], [7.6771, 44.0832], [7.6515, 44.0336], [7.5896, 43.9654], [7.5227, 43.9111], [7.482, 43.8649], [7.4905, 43.8229], [7.4932, 43.7671], [7.4387, 43.7504], [7.4369, 43.7615], [7.4145, 43.7709], [7.395, 43.7653], [7.3801, 43.7532], [7.3777, 43.7317], [7.2615, 43.6961], [7.1814, 43.6591], [6.8647, 43.4383], [6.7166, 43.3736], [6.6874, 43.3346], [6.6572, 43.2617], [6.5702, 43.1991], [6.494, 43.1693], [6.3054, 43.1387], [6.1159, 43.0724], [6.0306, 43.101], [5.8095, 43.0979], [5.6716, 43.1778], [5.4065, 43.2285], [5.3202, 43.3449], [5.1995, 43.3525], [5.1204, 43.349], [5.0731, 43.3666], [5.0608, 43.4063], [5.0598, 43.4445], [4.976, 43.427], [4.9119, 43.427], [4.8737, 43.4116], [4.8436, 43.3939], [4.8079, 43.4052], [4.7872, 43.4014], [4.7891, 43.3789], [4.7121, 43.3733], [4.6287, 43.3871], [4.4098, 43.4472], [4.3762, 43.4564], [4.2242, 43.4796], [4.1628, 43.5037], [4.1131, 43.563], [4.0751, 43.5818], [4.0526, 43.5931], [3.9108, 43.5631], [3.8616, 43.5164], [3.7848, 43.4616], [3.2589, 43.1932], [3.1629, 43.0808], [3.0518, 42.9151], [3.0431, 42.8379], [3.0909, 42.5909], [3.1979, 42.4612], [3.2114, 42.4312], [3.1521, 42.431], [3.0526, 42.4472], [2.97, 42.4672], [2.8914, 42.4561], [2.8156, 42.4292], [2.7494, 42.413], [2.7019, 42.4085], [2.67, 42.393], [2.6548, 42.3621], [2.6517, 42.3405], [2.568, 42.3458], [2.3744, 42.3903], [2.2004, 42.4209], [2.0983, 42.3861], [2.0327, 42.3535], [1.9865, 42.3585], [1.9515, 42.3928], [1.9279, 42.4263], [1.8598, 42.4571], [1.7061, 42.5033], [1.714, 42.5256], [1.7402, 42.5567], [1.7395, 42.5759], [1.7099, 42.6044], [1.5682, 42.635], [1.5014, 42.6427], [1.4589, 42.6217], [1.4283, 42.5959], [1.3494, 42.6907], [1.2933, 42.71], [1.2083, 42.7131], [1.1111, 42.742], [1.0101, 42.779], [0.7645, 42.838], [0.6969, 42.8451], [0.6698, 42.8357], [0.6518, 42.8004], [0.642, 42.7006], [0.6316, 42.6896], [0.5177, 42.6863], [0.3772, 42.7001], [0.3129, 42.6933], [0.2555, 42.6929], [0.2014, 42.7193], [-0.0412, 42.6891], [-0.0815, 42.7039], [-0.14, 42.7489], [-0.2053, 42.7853], [-0.2561, 42.804], [-0.2993, 42.8253], [-0.3386, 42.8288], [-0.3984, 42.8081], [-0.4812, 42.7993], [-0.5498, 42.802], [-0.5864, 42.799], [-0.7402, 42.9095], [-0.7626, 42.9398], [-0.8392, 42.9482], [-0.9338, 42.9495], [-1.1754, 43.0211], [-1.2854, 43.0596], [-1.3016, 43.0825], [-1.3, 43.101], [-1.3188, 43.097], [-1.3527, 43.0643], [-1.3705, 43.0376], [-1.394, 43.0326], [-1.4288, 43.0368], [-1.4608, 43.0518], [-1.4805, 43.0711], [-1.4594, 43.105], [-1.4226, 43.1491], [-1.4073, 43.1971], [-1.4107, 43.2401], [-1.4717, 43.2677], [-1.5615, 43.2792], [-1.6271, 43.2825], [-1.7128, 43.307], [-1.7533, 43.3247], [-1.7927, 43.3726], [-1.794, 43.4073], [-1.6314, 43.438], [-1.4849, 43.5638], [-1.346, 44.0202], [-1.2455, 44.5599], [-1.1708, 44.6618], [-1.077, 44.6898], [-1.1529, 44.764], [-1.2004, 44.7265], [-1.2203, 44.6866], [-1.2452, 44.6667], [-1.1891, 45.1615], [-1.1491, 45.3426], [-1.081, 45.5324], [-0.9417, 45.4571], [-0.8263, 45.3807], [-0.7667, 45.3144], [-0.6911, 45.0935], [-0.634, 45.0471], [-0.5485, 45.0006], [-0.5823, 45.0514], [-0.6411, 45.0902], [-0.7331, 45.3846], [-0.7908, 45.468], [-0.8807, 45.5382], [-1.17, 45.6859], [-1.196, 45.7145], [-1.21, 45.7709], [-1.1144, 45.7685], [-1.0317, 45.7411], [-1.0415, 45.7727], [-1.066, 45.8057], [-1.1044, 45.9253], [-1.1364, 46.2048], [-1.132, 46.2527], [-1.1463, 46.3114], [-1.2388, 46.3245], [-1.3128, 46.3269], [-1.3925, 46.3501], [-1.7865, 46.5148], [-1.9214, 46.6848], [-2.0594, 46.8103], [-2.0925, 46.865], [-2.0903, 46.9205], [-2.0189, 47.0376], [-2.0819, 47.1116], [-2.1436, 47.1263], [-2.1971, 47.1629], [-2.1486, 47.2239], [-2.1083, 47.2629], [-2.0276, 47.2736], [-1.9217, 47.2606], [-1.8213, 47.2253], [-1.7425, 47.216], [-1.9754, 47.3107], [-2.353, 47.2788], [-2.4344, 47.291], [-2.5031, 47.3121], [-2.53, 47.3816], [-2.4763, 47.4129], [-2.4277, 47.4709], [-2.4827, 47.5116], [-2.5541, 47.5271], [-2.6659, 47.5262], [-2.7703, 47.5139], [-2.7968, 47.5373], [-2.7331, 47.6018], [-2.7872, 47.6255], [-2.8594, 47.6145], [-2.9641, 47.6011], [-3.0642, 47.6213], [-3.1588, 47.6947], [-3.2216, 47.6941], [-3.2647, 47.6851], [-3.3286, 47.7133], [-3.3959, 47.7204], [-3.4439, 47.711], [-3.5078, 47.7531], [-3.9009, 47.8375], [-4.0707, 47.8479], [-4.2264, 47.8096], [-4.3121, 47.8229], [-4.3751, 47.8774], [-4.428, 47.9689], [-4.6788, 48.0395], [-4.6292, 48.0858], [-4.5124, 48.0967], [-4.3778, 48.1288], [-4.3294, 48.17], [-4.4346, 48.218], [-4.5122, 48.2297], [-4.5443, 48.247], [-4.5771, 48.29], [-4.5307, 48.3097], [-4.4979, 48.2993], [-4.4033, 48.2931], [-4.2414, 48.3037], [-4.3018, 48.3471], [-4.3644, 48.3567], [-4.3932, 48.3676], [-4.5248, 48.3723], [-4.5847, 48.3575], [-4.7194, 48.3631], [-4.7485, 48.41], [-4.7625, 48.4502], [-4.7208, 48.5399], [-4.5312, 48.62], [-4.0589, 48.7075], [-3.8557, 48.6947], [-3.7148, 48.7105], [-3.546, 48.7657], [-3.4715, 48.8129], [-3.2314, 48.8408], [-3.0032, 48.7907], [-2.7929, 48.6011], [-2.6923, 48.5368], [-2.4462, 48.6483], [-2.0794, 48.645], [-2.0037, 48.5821], [-1.9731, 48.6351], [-1.9057, 48.6971], [-1.852, 48.6688], [-1.8247, 48.6305], [-1.4376, 48.6414], [-1.3765, 48.6526], [-1.4805, 48.6976], [-1.5655, 48.8055], [-1.5831, 49.2024], [-1.6903, 49.3132], [-1.8134, 49.4901], [-1.8701, 49.5951], [-1.8754, 49.6314], [-1.8564, 49.6838], [-1.7051, 49.681], [-1.5882, 49.6677], [-1.3657, 49.7073], [-1.2586, 49.6802], [-1.2649, 49.5982], [-1.2323, 49.4949], [-1.195, 49.4448], [-1.1385, 49.3879], [-0.9591, 49.3932], [-0.7655, 49.3597], [-0.5209, 49.3545], [-0.1635, 49.2968], [-0.0112, 49.3302], [0.1361, 49.4015], [0.4169, 49.4484], [0.4393, 49.4732], [0.2776, 49.4633], [0.1294, 49.5084], [0.1094, 49.5575], [0.1266, 49.6016], [0.1867, 49.703], [0.6162, 49.8629], [0.9241, 49.9102], [1.2455, 49.9982], [1.4072, 50.0885], [1.5141, 50.2051], [1.5484, 50.2307], [1.5928, 50.2522], [1.5516, 50.2939], [1.5795, 50.7393], [1.6096, 50.8195], [1.6723, 50.885], [1.7677, 50.9357], [1.9125, 50.9906], [2.4457, 51.0665], [2.5249, 51.0971], [2.536, 51.0495], [2.5748, 50.9886], [2.6015, 50.9553], [2.5793, 50.9118], [2.5968, 50.8759], [2.6691, 50.8114], [2.7594, 50.7506], [2.8397, 50.7118], [2.8624, 50.716], [2.922, 50.7271], [3.0229, 50.7669], [3.1068, 50.7794], [3.1549, 50.7489], [3.182, 50.7317], [3.235, 50.6629], [3.2498, 50.5912], [3.2733, 50.5315], [3.3162, 50.5074], [3.477, 50.4995], [3.5954, 50.4773], [3.6268, 50.4573], [3.6673, 50.3248], [3.6894, 50.3061], [3.7188, 50.3217], [3.748, 50.3435], [3.7886, 50.347], [3.8581, 50.3386], [3.9497, 50.3359], [4.0441, 50.3213], [4.1746, 50.2465], [4.1696, 50.2218], [4.1441, 50.1784], [4.1353, 50.1438], [4.1577, 50.1299], [4.1922, 50.0941], [4.1839, 50.0528], [4.1503, 50.0239], [4.1368, 50.0], [4.137, 49.9845], [4.1493, 49.9716], [4.1761, 49.9603], [4.3688, 49.945], [4.545, 49.9603], [4.6562, 50.0024], [4.6751, 50.0469], [4.7066, 50.0971], [4.7729, 50.1391], [4.8187, 50.1532], [4.8605, 50.1359], [4.79, 49.9596], [4.8415, 49.9145], [4.8491, 49.8471], [4.8676, 49.7881], [4.9306, 49.7893], [5.0069, 49.7784], [5.061, 49.7565], [5.1241, 49.7215], [5.215, 49.6893], [5.2788, 49.6779], [5.302, 49.651], [5.3535, 49.6198], [5.4347, 49.5545], [5.5073, 49.5109], [5.5424, 49.511], [5.6101, 49.5282], [5.7104, 49.5392], [5.7897, 49.5383], [5.8234, 49.5051], [5.9014, 49.4897], [5.9289, 49.4775], [5.9595, 49.4546], [6.0114, 49.4455], [6.0741, 49.4546], [6.1199, 49.4852], [6.1811, 49.4989], [6.2422, 49.4943], [6.2773, 49.4775], [6.3443, 49.4527], [6.3822, 49.4582], [6.4581, 49.4429], [6.5343, 49.3947], [6.5663, 49.3462], [6.5747, 49.3197], [6.6076, 49.2909], [6.7354, 49.1606], [6.7763, 49.1542], [6.8207, 49.1739], [6.8495, 49.202], [6.8912, 49.2075], [6.9583, 49.1946], [7.0015, 49.1799], [7.0222, 49.1234], [7.0367, 49.1127], [7.0657, 49.1249], [7.1174, 49.1275], [7.1999, 49.1136], [7.3134, 49.1295], [7.4042, 49.1531], [7.4506, 49.1522], [7.5255, 49.0864], [7.6109, 49.0618], [7.7992, 49.0419], [8.0013, 49.0109], [8.0807, 48.9859], [8.1349, 48.9736], [8.1403, 48.8864], [8.124, 48.8733], [7.9228, 48.6985], [7.838, 48.636], [7.7948, 48.5468], [7.7651, 48.41], [7.7057, 48.28], [7.6166, 48.1568], [7.5842, 48.0643], [7.6085, 48.0026], [7.5933, 47.9057], [7.5386, 47.7736], [7.5294, 47.6739], [7.5654, 47.6065], [7.6156, 47.5927]]], [[[-1.1783, 45.9041], [-1.2136, 45.8166], [-1.2803, 45.8971], [-1.3687, 45.9677], [-1.3889, 46.033], [-1.3887, 46.0504], [-1.2851, 46.0027], [-1.1783, 45.9041]]], [[[45.1803, -12.9768], [45.1176, -12.985], [45.0877, -12.9585], [45.0694, -12.8956], [45.0883, -12.8351], [45.0936, -12.7861], [45.0426, -12.7013], [45.0924, -12.653], [45.1348, -12.7092], [45.1588, -12.713], [45.2231, -12.7521], [45.2043, -12.8243], [45.2086, -12.8479], [45.1794, -12.9202], [45.1803, -12.9768]]], [[[55.7974, -21.3394], [55.6562, -21.369], [55.5576, -21.3583], [55.3627, -21.2736], [55.3104, -21.2174], [55.2328, -21.0584], [55.25, -21.0024], [55.3113, -20.9041], [55.4505, -20.8651], [55.5965, -20.8796], [55.6619, -20.9062], [55.7392, -21.0215], [55.8391, -21.1386], [55.8225, -21.2778], [55.7974, -21.3394]]], [[[-60.8263, 14.4945], [-60.8366, 14.4374], [-60.8621, 14.4263], [-60.8994, 14.4738], [-61.0637, 14.4671], [-61.0889, 14.5096], [-61.0903, 14.5297], [-61.0113, 14.6019], [-61.1043, 14.6212], [-61.1411, 14.6524], [-61.2197, 14.8044], [-61.2133, 14.8486], [-61.1808, 14.8719], [-61.1274, 14.8753], [-61.0271, 14.8262], [-60.9525, 14.7562], [-60.9271, 14.7552], [-60.9187, 14.7354], [-60.9337, 14.6862], [-60.8892, 14.6445], [-60.87, 14.6137], [-60.8263, 14.4945]]], [[[-61.3271, 16.2304], [-61.4448, 16.2193], [-61.5222, 16.228], [-61.54, 16.2996], [-61.5006, 16.3602], [-61.5289, 16.4338], [-61.5106, 16.4777], [-61.4712, 16.5066], [-61.4064, 16.4683], [-61.3961, 16.4134], [-61.3555, 16.3632], [-61.1726, 16.2561], [-61.3271, 16.2304]]], [[[-61.5896, 16.0069], [-61.6705, 15.9621], [-61.7103, 15.9759], [-61.7594, 16.0621], [-61.7941, 16.301], [-61.7671, 16.3405], [-61.748, 16.3553], [-61.6415, 16.326], [-61.597, 16.2922], [-61.5523, 16.2709], [-61.575, 16.2271], [-61.5639, 16.0478], [-61.5896, 16.0069]]], [[[-61.2305, 15.8899], [-61.2862, 15.886], [-61.3107, 15.8947], [-61.3184, 15.9549], [-61.2753, 15.9962], [-61.25, 16.0063], [-61.2124, 15.9599], [-61.2034, 15.9212], [-61.2305, 15.8899]]], [[[-54.6163, 2.3268], [-54.6047, 2.3358], [-54.5684, 2.3426], [-54.5359, 2.3433], [-54.4855, 2.4161], [-54.402, 2.4615], [-54.2567, 2.7137], [-54.1955, 2.8179], [-54.1881, 2.8749], [-54.1707, 2.9936], [-54.2031, 3.1382], [-54.188, 3.1788], [-54.0632, 3.3533], [-54.0096, 3.4485], [-54.006, 3.5305], [-53.9905, 3.5896], [-54.0059, 3.6204], [-54.0342, 3.6294], [-54.082, 3.706], [-54.1128, 3.7694], [-54.1975, 3.8344], [-54.2555, 3.9011], [-54.3507, 4.0541], [-54.3421, 4.14], [-54.3691, 4.1709], [-54.3984, 4.2025], [-54.3962, 4.2414], [-54.416, 4.3376], [-54.4407, 4.428], [-54.4496, 4.485], [-54.4261, 4.583], [-54.4402, 4.692], [-54.4711, 4.7493], [-54.4797, 4.8365], [-54.4733, 4.9147], [-54.4469, 4.9588], [-54.4522, 5.0135], [-54.3316, 5.1874], [-54.2402, 5.2882], [-54.156, 5.359], [-54.0853, 5.4118], [-53.9896, 5.676], [-53.9199, 5.769], [-53.8472, 5.7822], [-53.4544, 5.5635], [-53.2704, 5.5433], [-52.8993, 5.425], [-52.765, 5.2735], [-52.454, 5.0213], [-52.2905, 4.9422], [-52.2889, 4.8761], [-52.3246, 4.7709], [-52.22, 4.8628], [-52.0581, 4.7174], [-52.0123, 4.646], [-51.9619, 4.5144], [-51.9793, 4.4299], [-52.0017, 4.3862], [-52.0029, 4.3523], [-51.9548, 4.3991], [-51.9277, 4.4361], [-51.9196, 4.5243], [-51.8803, 4.6337], [-51.8275, 4.6357], [-51.7856, 4.5705], [-51.6986, 4.2868], [-51.6658, 4.2288], [-51.6533, 4.1388], [-51.6581, 4.0985], [-51.6525, 4.0613], [-51.6834, 4.0397], [-51.7671, 3.9927], [-51.8053, 3.9299], [-51.8275, 3.8696], [-51.8795, 3.8286], [-51.9289, 3.777], [-51.9443, 3.7351], [-51.9906, 3.702], [-51.9995, 3.6469], [-52.1161, 3.4523], [-52.1626, 3.3647], [-52.2294, 3.2717], [-52.2712, 3.2371], [-52.3279, 3.1817], [-52.3566, 3.1177], [-52.3566, 3.0516], [-52.3964, 2.9722], [-52.4184, 2.9039], [-52.4559, 2.8642], [-52.5547, 2.6477], [-52.5595, 2.5731], [-52.583, 2.5289], [-52.6532, 2.4257], [-52.7006, 2.3637], [-52.7834, 2.3172], [-52.8704, 2.2666], [-52.9035, 2.2115], [-52.9648, 2.1835], [-53.0097, 2.1817], [-53.0823, 2.2017], [-53.1801, 2.2113], [-53.2298, 2.2049], [-53.2522, 2.2323], [-53.2855, 2.2952], [-53.3344, 2.3397], [-53.366, 2.3242], [-53.4318, 2.2794], [-53.509, 2.2531], [-53.564, 2.2619], [-53.6837, 2.2929], [-53.7347, 2.3085], [-53.7501, 2.335], [-53.7678, 2.3548], [-53.7942, 2.346], [-53.8295, 2.3129], [-53.8766, 2.2783], [-53.9464, 2.2326], [-54.0897, 2.1505], [-54.1301, 2.121], [-54.1674, 2.1371], [-54.228, 2.1533], [-54.2931, 2.1542], [-54.4331, 2.2075], [-54.5151, 2.2455], [-54.5505, 2.2931], [-54.5919, 2.3138], [-54.6163, 2.3268]]]]}}, {"type": "Feature", "properties": {"iso_a3": "AUT", "name": "Austria"}, "geometry": {"type": "Polygon", "coordinates": [[[9.5275, 47.2708], [9.6091, 47.3918], [9.6259, 47.467], [9.5544, 47.5111], [9.524, 47.5242], [9.5489, 47.534], [9.6506, 47.5259], [9.7151, 47.5508], [9.7489, 47.5755], [9.8392, 47.5523], [9.9716, 47.5053], [10.0341, 47.4736], [10.0599, 47.4491], [10.0742, 47.4285], [10.0663, 47.3934], [10.0965, 47.3796], [10.1588, 47.3743], [10.2003, 47.3634], [10.1857, 47.3172], [10.183, 47.2788], [10.2406, 47.2841], [10.3128, 47.3134], [10.3691, 47.3661], [10.4039, 47.417], [10.4304, 47.5411], [10.4395, 47.5516], [10.4828, 47.5418], [10.6587, 47.5472], [10.7416, 47.5241], [10.873, 47.5202], [10.8706, 47.5008], [10.8939, 47.4705], [10.9521, 47.4267], [10.9809, 47.3981], [11.042, 47.3931], [11.136, 47.4089], [11.1912, 47.4252], [11.2119, 47.4136], [11.2979, 47.4249], [11.3741, 47.4603], [11.393, 47.4872], [11.4699, 47.5061], [11.5739, 47.5498], [11.7168, 47.5835], [12.1856, 47.6195], [12.2038, 47.6467], [12.1969, 47.7091], [12.2093, 47.7183], [12.2684, 47.7027], [12.3632, 47.6882], [12.4357, 47.6661], [12.4829, 47.6373], [12.5266, 47.6361], [12.5942, 47.6563], [12.6858, 47.6693], [12.7714, 47.6394], [12.7962, 47.607], [12.7812, 47.5904], [12.7828, 47.5642], [12.8094, 47.5422], [12.8789, 47.5064], [12.9681, 47.4757], [13.0144, 47.4781], [13.0315, 47.508], [13.0479, 47.5791], [13.0541, 47.6551], [13.0336, 47.6987], [12.9855, 47.7094], [12.9281, 47.7128], [12.8977, 47.7219], [12.9083, 47.7458], [12.9542, 47.8078], [12.9535, 47.8906], [12.8499, 47.9848], [12.7601, 48.076], [12.7604, 48.107], [12.8143, 48.1608], [12.8975, 48.2037], [13.0821, 48.2751], [13.1404, 48.2899], [13.2152, 48.3019], [13.3229, 48.3312], [13.3746, 48.3614], [13.4094, 48.3941], [13.4599, 48.5646], [13.4717, 48.5718], [13.4866, 48.5818], [13.6752, 48.523], [13.6922, 48.5328], [13.7239, 48.5424], [13.7854, 48.5875], [13.7988, 48.6217], [13.7975, 48.6864], [13.8029, 48.7475], [13.8147, 48.7669], [13.8432, 48.7599], [13.9243, 48.728], [13.9888, 48.6924], [14.0491, 48.6025], [14.1898, 48.5786], [14.3676, 48.5762], [14.4311, 48.6163], [14.4887, 48.6255], [14.5539, 48.6133], [14.6913, 48.5992], [14.7066, 48.6719], [14.7859, 48.7474], [14.8219, 48.774], [14.9226, 48.7714], [14.9474, 48.8277], [14.9722, 48.9839], [14.9935, 49.0011], [15.0668, 48.9979], [15.1397, 48.9693], [15.1617, 48.9463], [15.1996, 48.9481], [15.2527, 48.9639], [15.3109, 48.974], [15.4029, 48.9574], [15.5994, 48.8864], [15.7008, 48.8604], [15.765, 48.8654], [15.8252, 48.8645], [16.0572, 48.7548], [16.2193, 48.7394], [16.3673, 48.739], [16.4148, 48.7721], [16.4779, 48.8001], [16.5436, 48.7962], [16.601, 48.7819], [16.7127, 48.7342], [16.7645, 48.722], [16.8332, 48.7143], [16.8837, 48.7037], [16.9283, 48.6209], [16.9531, 48.5988], [16.9488, 48.5886], [16.9434, 48.5509], [16.9045, 48.5035], [16.8627, 48.4414], [16.8654, 48.3869], [16.9727, 48.1981], [17.0679, 48.0833], [17.0859, 48.0396], [17.1474, 48.006], [17.0891, 47.9636], [17.0777, 47.9009], [17.0399, 47.8729], [17.0301, 47.8371], [17.0459, 47.8045], [17.0456, 47.7638], [17.0666, 47.7076], [16.9734, 47.6953], [16.8627, 47.6973], [16.823, 47.694], [16.7859, 47.6787], [16.7476, 47.6863], [16.6475, 47.739], [16.5909, 47.7505], [16.551, 47.7474], [16.5211, 47.7245], [16.4696, 47.6951], [16.4213, 47.6745], [16.4321, 47.6563], [16.6397, 47.6089], [16.6766, 47.536], [16.6366, 47.4766], [16.623, 47.4476], [16.5744, 47.4247], [16.5147, 47.4045], [16.4429, 47.3995], [16.4344, 47.3674], [16.4626, 47.2731], [16.4397, 47.2527], [16.4169, 47.2234], [16.4384, 47.1459], [16.4828, 47.1404], [16.4927, 47.1227], [16.4848, 47.0913], [16.477, 47.0579], [16.4612, 47.0225], [16.4534, 47.0068], [16.4239, 46.997], [16.3318, 47.0022], [16.2525, 46.9719], [16.0931, 46.8633], [16.0372, 46.8448], [15.9769, 46.8014], [15.9805, 46.7059], [15.9723, 46.6972], [15.9576, 46.6776], [15.7669, 46.7113], [15.7603, 46.7107], [15.6326, 46.6984], [15.5453, 46.6546], [15.4393, 46.6296], [15.217, 46.643], [15.0007, 46.626], [14.9494, 46.6132], [14.8933, 46.6059], [14.8406, 46.5805], [14.8105, 46.5446], [14.7567, 46.4991], [14.6802, 46.4634], [14.597, 46.4361], [14.5771, 46.4129], [14.5498, 46.3997], [14.5035, 46.417], [14.4659, 46.4161], [14.4199, 46.4279], [14.2673, 46.4407], [14.0995, 46.4619], [14.0196, 46.4822], [13.9288, 46.4982], [13.8313, 46.5112], [13.7439, 46.5143], [13.7, 46.5203], [13.49, 46.5556], [13.3516, 46.5579], [13.1687, 46.5727], [12.8056, 46.6259], [12.6998, 46.6475], [12.5986, 46.6541], [12.4792, 46.6725], [12.3883, 46.7026], [12.3301, 46.7598], [12.268, 46.8359], [12.1541, 46.9353], [12.1308, 46.9848], [12.1655, 47.0282], [12.2013, 47.0609], [12.1972, 47.075], [12.1694, 47.0821], [11.9695, 47.0397], [11.7757, 46.9861], [11.6994, 46.9847], [11.6255, 46.9966], [11.5275, 46.9974], [11.4332, 46.9831], [11.2444, 46.9757], [11.1339, 46.9362], [11.0635, 46.8591], [11.0251, 46.797], [10.9933, 46.777], [10.9273, 46.7695], [10.8289, 46.7752], [10.7598, 46.7933], [10.6893, 46.8464], [10.5798, 46.8537], [10.4794, 46.8551], [10.4528, 46.8649], [10.4546, 46.8994], [10.4149, 46.9644], [10.3494, 46.9848], [10.1798, 46.8624], [10.1335, 46.8515], [9.9969, 46.8854], [9.8777, 46.9377], [9.8646, 46.976], [9.8453, 47.0074], [9.745, 47.0371], [9.6199, 47.0575], [9.5803, 47.0574], [9.5957, 47.0758], [9.6105, 47.1071], [9.6012, 47.1321], [9.5719, 47.1579], [9.5558, 47.1855], [9.5511, 47.2123], [9.5422, 47.2341], [9.5368, 47.2546], [9.5275, 47.2708]]]}}]}